STARLINK-31437          
1 60057U 24112V   26068.43428554 -.00002014  00000+0 -55929-4 0  9997
2 60057  53.1602  79.4530 0001233  73.8346 286.2790 15.30181601 98552
2025-313BE              
1 67482U 25313BE  26068.69721505  .00077178  00000+0  26504-2 0  9996
2 67482  97.3989 145.3568 0007208 335.3714  24.7181 15.29801687  7972
